NORAD_CAT_ID,OBJECT_NAME,OBJECT_TYPE,EPOCH,MEAN_MOTION,ECCENTRICITY,INCLINATION,RA_OF_ASC_NODE,ARG_OF_PERICENTER,MEAN_ANOMALY,BSTAR,MEAN_MOTION_DOT,MEAN_MOTION_DDOT,TLE_LINE0,TLE_LINE1,TLE_LINE2,SEMIMAJOR_AXIS,PERIOD,APOGEE,PERIGEE,DECAYED
55414.0,STARLINK-5620,PAYLOAD,2024-01-09 21:56:05,14.98325677,0.0002561,69.9989,275.6701,267.0057,93.0809,0.00010981,1.217e-05,0.0,0 STARLINK-5620,1 55414U 23014Z   24009.91394954  .00001217  00000-0  10981-3 0  9991,2 55414  69.9989 275.6701 0002561 267.0057  93.0809 14.98325677 53267,6950.206,96.107,573.851,570.291,0.0
55414.0,STARLINK-5620,PAYLOAD,2024-01-10 02:44:29,14.98328306,0.0002498,69.9991,275.1653,265.1644,94.923,0.00013481,1.516e-05,0.0,0 STARLINK-5620,1 55414U 23014Z   24010.11422745  .00001516  00000-0  13481-3 0  9995,2 55414  69.9991 275.1653 0002498 265.1644  94.9230 14.98328306 53294,6950.198,96.107,573.799,570.327,0.0
55414.0,STARLINK-5620,PAYLOAD,2024-01-10 04:20:37,14.98328262,0.0002504,69.9991,274.997,266.3885,93.6987,0.0001313,1.474e-05,0.0,0 STARLINK-5620,1 55414U 23014Z   24010.18098767  .00001474  00000-0  13130-3 0  9999,2 55414  69.9991 274.9970 0002504 266.3885  93.6987 14.98328262 53309,6950.198,96.107,573.804,570.323,0.0
55414.0,STARLINK-5620,PAYLOAD,2024-01-11 02:46:30,14.98330603,0.0002481,69.999,272.6401,264.5096,95.578,1.036e-05,3.1e-07,0.0,0 STARLINK-5620,1 55414U 23014Z   24011.11562989  .00000031  00000-0  10360-4 0  9996,2 55414  69.9990 272.6401 0002481 264.5096  95.5780 14.98330603 53449,6950.191,96.107,573.78,570.332,0.0
55414.0,STARLINK-5620,PAYLOAD,2024-01-11 20:23:59,14.98325144,0.0002406,69.9989,270.7881,257.3727,102.7163,-6.9468e-05,-9.22e-06,0.0,0 STARLINK-5620,1 55414U 23014Z   24011.84999613 -.00000922  00000-0 -69468-4 0  9998,2 55414  69.9989 270.7881 0002406 257.3727 102.7163 14.98325144 53558,6950.208,96.107,573.745,570.401,0.0
55414.0,STARLINK-5620,PAYLOAD,2024-01-11 22:00:07,14.9832465,0.0002369,69.999,270.6198,253.6912,106.3986,-6.9013e-05,-9.16e-06,0.0,0 STARLINK-5620,1 55414U 23014Z   24011.91675653 -.00000916  00000-0 -69013-4 0  9990,2 55414  69.9990 270.6198 0002369 253.6912 106.3986 14.98324650 53568,6950.209,96.107,573.721,570.428,0.0
55414.0,STARLINK-5620,PAYLOAD,2024-01-12 02:48:31,14.98325459,0.0002451,69.999,270.1149,263.5426,96.5453,-5.2256e-05,-7.16e-06,0.0,0 STARLINK-5620,1 55414U 23014Z   24012.11703646 -.00000716  00000-0 -52256-4 0  9996,2 55414  69.9990 270.1149 0002451 263.5426  96.5453 14.98325459 53591,6950.207,96.107,573.775,570.368,0.0
55414.0,STARLINK-5620,PAYLOAD,2024-01-12 22:02:08,14.98328922,0.000261,69.9988,268.0951,265.2228,94.8633,-5.3802e-06,-1.57e-06,0.0,0 STARLINK-5620,1 55414U 23014Z   24012.91815399 -.00000157  00000-0 -53802-5 0  9991,2 55414  69.9988 268.0951 0002610 265.2228  94.8633 14.98328922 53714,6950.196,96.107,573.875,570.247,0.0
55414.0,STARLINK-5620,PAYLOAD,2024-01-13 02:50:32,14.98331981,0.0002603,69.9987,267.5897,266.6756,93.4105,2.9275e-05,2.56e-06,0.0,0 STARLINK-5620,1 55414U 23014Z   24013.11843116  .00000256  00000-0  29275-4 0  9996,2 55414  69.9987 267.5897 0002603 266.6756  93.4105 14.98331981 53740,6950.187,96.107,573.861,570.243,0.0
55414.0,STARLINK-5620,PAYLOAD,2024-01-14 02:52:33,14.98332191,0.0002663,69.9986,265.0649,268.3448,91.7406,8.7593e-05,9.52e-06,0.0,0 STARLINK-5620,1 55414U 23014Z   24014.11982975  .00000952  00000-0  87593-4 0  9994,2 55414  69.9986 265.0649 0002663 268.3448  91.7406 14.98332191 53895,6950.186,96.107,573.902,570.2,0.0
55414.0,STARLINK-5620,PAYLOAD,2024-01-14 22:06:10,14.98332522,0.0002555,69.9987,263.0449,269.4337,90.6529,1.618e-05,1e-06,0.0,0 STARLINK-5620,1 55414U 23014Z   24014.92095049  .00000100  00000-0  16180-4 0  9999,2 55414  69.9987 263.0449 0002555 269.4337  90.6529 14.98332522 54018,6950.185,96.107,573.826,570.274,0.0
55414.0,STARLINK-5620,PAYLOAD,2024-01-15 02:54:33,14.98336246,0.0002526,69.9989,262.5403,270.8012,89.2858,5.6224e-05,5.78e-06,0.0,0 STARLINK-5620,1 55414U 23014Z   24015.12122645  .00000578  00000-0  56224-4 0  9997,2 55414  69.9989 262.5403 0002526 270.8012  89.2858 14.98336246 54047,6950.174,96.107,573.794,570.283,0.0
55414.0,STARLINK-5620,PAYLOAD,2024-01-15 18:55:55,14.98324769,0.0002285,69.9998,260.8577,260.1741,99.916,-3.4874e-05,-5.09e-06,0.0,0 STARLINK-5620,1 55414U 23014Z   24015.78883530 -.00000509  00000-0 -34874-4 0  9999,2 55414  69.9998 260.8577 0002285 260.1741  99.9160 14.98324769 54145,6950.209,96.107,573.662,570.486,0.0
55414.0,STARLINK-5620,PAYLOAD,2024-01-15 20:32:03,14.98325371,0.0002452,69.9995,260.6894,263.3381,96.7499,-6.2108e-05,-8.34e-06,0.0,0 STARLINK-5620,1 55414U 23014Z   24015.85559568 -.00000834  00000-0 -62108-4 0  9990,2 55414  69.9995 260.6894 0002452 263.3381  96.7499 14.98325371 54154,6950.207,96.107,573.776,570.368,0.0
55414.0,STARLINK-5620,PAYLOAD,2024-01-16 01:20:27,14.98324258,0.0002378,69.9996,260.1844,259.5284,100.5607,-5.4175e-05,-7.39e-06,0.0,0 STARLINK-5620,1 55414U 23014Z   24016.05587667 -.00000739  00000-0 -54175-4 0  9993,2 55414  69.9996 260.1844 0002378 259.5284 100.5607 14.98324258 54182,6950.211,96.107,573.728,570.423,0.0
55414.0,STARLINK-5620,PAYLOAD,2024-01-16 18:57:56,14.98329668,0.0002619,69.9987,258.3322,258.9866,101.0999,-2.1612e-05,-3.51e-06,0.0,0 STARLINK-5620,1 55414U 23014Z   24016.79023184 -.00000351  00000-0 -21612-4 0  9993,2 55414  69.9987 258.3322 0002619 258.9866 101.0999 14.98329668 54291,6950.194,96.107,573.879,570.239,0.0
55414.0,STARLINK-5620,PAYLOAD,2024-01-16 22:10:12,14.98329164,0.0002663,69.9986,257.9956,258.8583,101.2276,-2.4606e-05,-3.87e-06,0.0,0 STARLINK-5620,1 55414U 23014Z   24016.92375226 -.00000387  00000-0 -24606-4 0  9990,2 55414  69.9986 257.9956 0002663 258.8583 101.2276 14.98329164 54316,6950.195,96.107,573.911,570.21,0.0
55414.0,STARLINK-5620,PAYLOAD,2024-01-17 01:22:27,14.98333211,0.0002617,69.9985,257.6585,259.8212,100.2651,2.4322e-05,1.97e-06,0.0,0 STARLINK-5620,1 55414U 23014Z   24017.05726809  .00000197  00000-0  24322-4 0  9994,2 55414  69.9985 257.6585 0002617 259.8212 100.2651 14.98333211 54335,6950.183,96.107,573.867,570.229,0.0
55414.0,STARLINK-5620,PAYLOAD,2024-01-17 18:59:57,14.98316926,0.0002721,69.9984,255.8058,266.4457,93.6391,0.00014088,1.588e-05,0.0,0 STARLINK-5620,1 55414U 23014Z   24017.79163523  .00001588  00000-0  14088-3 0  9995,2 55414  69.9984 255.8058 0002721 266.4457  93.6391 14.98316926 54442,6950.233,96.108,573.989,570.207,0.0
55414.0,STARLINK-5620,PAYLOAD,2024-01-17 22:12:13,14.98321917,0.0002551,69.9987,255.4694,261.5751,98.5119,3.882e-05,3.7e-06,0.0,0 STARLINK-5620,1 55414U 23014Z   24017.92515595  .00000370  00000-0  38820-4 0  9999,2 55414  69.9987 255.4694 0002551 261.5751  98.5119 14.98321917 54461,6950.218,96.108,573.856,570.31,0.0
55414.0,STARLINK-5620,PAYLOAD,2024-01-18 01:24:29,14.98323791,0.0002671,69.9986,255.1331,264.4138,95.6717,2.2555e-05,1.76e-06,0.0,0 STARLINK-5620,1 55414U 23014Z   24018.05867570  .00000176  00000-0  22555-4 0  9999,2 55414  69.9986 255.1331 0002671 264.4138  95.6717 14.98323791 54485,6950.212,96.107,573.933,570.221,0.0
55414.0,STARLINK-5620,PAYLOAD,2024-01-18 19:01:57,14.98330676,0.0002804,69.9988,253.2827,268.2088,91.875,4.633e-05,4.6e-06,0.0,0 STARLINK-5620,1 55414U 23014Z   24018.79303088  .00000460  00000-0  46330-4 0  9992,2 55414  69.9988 253.2827 0002804 268.2088  91.8750 14.98330676 54597,6950.191,96.107,574.005,570.107,0.0
55414.0,STARLINK-5620,PAYLOAD,2024-01-18 22:14:13,14.98332709,0.0002729,69.9985,252.945,264.4664,95.6183,4.3516e-05,4.26e-06,0.0,0 STARLINK-5620,1 55414U 23014Z   24018.92654939  .00000426  00000-0  43516-4 0  9996,2 55414  69.9985 252.9450 0002729 264.4664  95.6183 14.98332709 54610,6950.185,96.107,573.946,570.153,0.0
55414.0,STARLINK-5620,PAYLOAD,2024-01-19 01:26:29,14.98334495,0.000278,69.9986,252.6091,267.7904,92.2937,7.7644e-05,8.34e-06,0.0,0 STARLINK-5620,1 55414U 23014Z   24019.06006708  .00000834  00000-0  77644-4 0  9999,2 55414  69.9986 252.6091 0002780 267.7904  92.2937 14.98334495 54635,6950.179,96.107,573.976,570.112,0.0
55414.0,STARLINK-5620,PAYLOAD,2024-01-19 19:03:58,14.98330485,0.0002712,69.9985,250.7571,266.5892,93.4957,4.5995e-05,4.56e-06,0.0,0 STARLINK-5620,1 55414U 23014Z   24019.79442891  .00000456  00000-0  45995-4 0  9990,2 55414  69.9985 250.7571 0002712 266.5892  93.4957 14.98330485 54746,6950.191,96.107,573.941,570.171,0.0
55414.0,STARLINK-5620,PAYLOAD,2024-01-19 22:16:14,14.98331771,0.000245,69.9985,250.4201,257.8075,102.281,1.5497e-05,9.2e-07,0.0,0 STARLINK-5620,1 55414U 23014Z   24019.92794884  .00000092  00000-0  15497-4 0  9997,2 55414  69.9985 250.4201 0002450 257.8075 102.2810 14.98331771 54766,6950.187,96.107,573.755,570.35,0.0
55414.0,STARLINK-5620,PAYLOAD,2024-01-20 01:28:30,14.98331685,0.0002583,69.9984,250.0836,263.7225,96.364,1.8609e-05,1.29e-06,0.0,0 STARLINK-5620,1 55414U 23014Z   24020.06146871  .00000129  00000-0  18609-4 0  9990,2 55414  69.9984 250.0836 0002583 263.7225  96.3640 14.98331685 54785,6950.188,96.107,573.848,570.257,0.0
55414.0,STARLINK-5620,PAYLOAD,2024-01-20 19:05:58,14.98420621,0.0003017,69.9986,248.2319,267.7777,92.3037,-0.0014898,-0.00017866,0.0,0 STARLINK-5620,1 55414U 23014Z   24020.79581751 -.00017866  00000-0 -14898-2 0  9992,2 55414  69.9986 248.2319 0003017 267.7777  92.3037 14.98420621 54898,6949.913,96.101,573.874,569.681,0.0
55414.0,STARLINK-5620,PAYLOAD,2024-01-20 22:18:14,14.98391972,0.0002976,69.9985,247.8951,268.8728,91.209,-0.0010771,-0.00012942,0.0,0 STARLINK-5620,1 55414U 23014Z   24020.92933846 -.00012942  00000-0 -10771-2 0  9999,2 55414  69.9985 247.8951 0002976 268.8728  91.2090 14.98391972 54911,6950.001,96.103,573.935,569.798,0.0
55414.0,STARLINK-5620,PAYLOAD,2024-01-21 01:30:31,14.9833063,0.0002637,69.9985,247.5588,268.0294,92.0563,-4.0879e-05,-5.81e-06,0.0,0 STARLINK-5620,1 55414U 23014Z   24021.06287008 -.00000581  00000-0 -40879-4 0  9997,2 55414  69.9985 247.5588 0002637 268.0294  92.0563 14.98330630 54938,6950.191,96.107,573.889,570.223,0.0
